IRIDIUM 171             
1 43929U 19002H   25196.87707088  .00000036  00000+0  59241-5 0  9991
2 43929  86.4007 134.4483 0001980  89.4818 270.6605 14.34217839340754
IRIDIUM 170             
1 43930U 19002J   25196.86096276  .00000655  00000+0  99921-4 0  9997
2 43930  86.6123 134.2035 0002300  78.7969 281.3507 14.72254086349771
IRIDIUM 167             
1 43931U 19002K   25197.35910800  .00000160  00000+0  49928-4 0  9994
2 43931  86.3998 133.9974 0001837  82.8957 277.2447 14.34217605340822
IRIDIUM 181             
1 56726U 23068S   25197.48287008  .00000138  00000+0  35029-4 0  9990
2 56726  86.4521 197.0029 0002189 104.2077 255.9367 14.43309648114019
IRIDIUM 177             
1 56727U 23068T   25197.34258972  .00000943  00000+0  12065-3 0  9992
2 56727  86.1992 128.2959 0002222  88.9323 271.2152 14.80224323116682
IRIDIUM 174             
1 56728U 23068U   25197.32437398  .00000792  00000+0  12168-3 0  9998
2 56728  86.6132 134.1233 0003080  79.2378 280.9185 14.72248552116607
IRIDIUM 178             
1 56729U 23068V   25196.92608279  .00001284  00000+0  16555-3 0  9993
2 56729  86.6584 165.8436 0002733  85.5399 274.6135 14.80231765116626
IRIDIUM 179             
1 56730U 23068W   25197.46152420  .00000570  00000+0  71621-4 0  9990
2 56730  86.6824 173.5776 0002464  87.5616 272.5887 14.80228064116701
